HULIANWANG DIGUI-143    
1 67441U 26007G   26160.61285020 -.00000082  00000+0  90251-4 0  9997
2 67441  50.0092 112.8228 0000768 336.6778  23.4059 13.29323179 19783
HULIANWANG DIGUI-144    
1 67442U 26007H   26160.60442586 -.00000077  00000+0  10124-3 0  9993
2 67442  50.0081 112.7669 0000888 342.4812  17.6029 13.29327554 19780
HULIANWANG DIGUI-145    
1 67443U 26007J   26160.59616648 -.00000078  00000+0  98760-4 0  9998
2 67443  50.0085 112.7287 0000869 338.8828  21.2008 13.29324012 19780
STARLINK-36542          
1 67445U 26008A   26160.39174264  .00027347  00000+0  99805-3 0  9999
2 67445  43.0030  47.6280 0001135 296.3602  63.7133 15.27631669 23591
STARLINK-36539          
1 67446U 26008B   26160.40587457  .00013708  00000+0  50652-3 0  9997
2 67446  43.0204  47.7291 0002357 268.9030  91.1552 15.27593919 23590
STARLINK-36440          
1 67447U 26008C   26160.40957714  .00016048  00000+0  59099-3 0  9999
2 67447  43.0054  46.8835 0002222 265.2106  94.8492 15.27604299 23602
STARLINK-36423          
1 67448U 26008D   26159.97372755  .00024294  00000+0  88904-3 0  9995
2 67448  43.0001  49.6473 0001821 274.8690  85.1954 15.27594679 23530
STARLINK-36519          
1 67449U 26008E   26160.38145295  .00016022  00000+0  59013-3 0  9999
2 67449  43.0020  47.5410 0003113 262.3545  97.6953 15.27597644 23595
STARLINK-36525          
1 67450U 26008F   26160.37760266  .00014368  00000+0  53027-3 0  9991
2 67450  43.0027  47.5125 0001481 264.7139  95.3544 15.27602797 23595
STARLINK-36511          
1 67451U 26008G   26160.39559174  .00020750  00000+0  76066-3 0  9998
2 67451  43.0027  47.6593 0002819 268.4045  91.6484 15.27612574 23595
STARLINK-36524          
1 67452U 26008H   26160.40328607  .00012834  00000+0  47463-3 0  9999
2 67452  43.0036  47.7111 0005634 269.0847  90.9359 15.27600980 23599
STARLINK-36518          
1 67453U 26008J   26160.38274315  .00026072  00000+0  95285-3 0  9997
2 67453  43.0044  47.5361 0001320 278.7148  81.3555 15.27606483 23599
STARLINK-36517          
1 67454U 26008K   26160.38916883  .00022027  00000+0  80727-3 0  9992
2 67454  42.9930  47.6120 0002431 270.4135  89.6438 15.27591662 23598
STARLINK-36516          
1 67455U 26008L   26158.98264807  .00016049  00000+0  59108-3 0  9994
2 67455  43.0018  55.1038 0000813 212.6811 147.3991 15.27601321 23388
STARLINK-36493          
1 67456U 26008M   26158.98650575  .00025742  00000+0  94157-3 0  9999
2 67456  43.0008  55.1323 0002893 277.3240  82.7283 15.27582636 23382
STARLINK-36529          
1 67457U 26008N   26160.38531168  .00017442  00000+0  64123-3 0  9991
2 67457  43.0031  47.5728 0000303 226.6649 133.4178 15.27612010 23597
STARLINK-36528          
1 67458U 26008P   26160.40699803  .00022007  00000+0  80570-3 0  9993
2 67458  43.0171  46.8587 0005494 267.4092  92.6131 15.27616628 23605
STARLINK-36546          
1 67459U 26008Q   26160.39943199  .00015947  00000+0  58728-3 0  9997
2 67459  43.0234  47.6741 0005681 263.2828  96.7377 15.27598002 23596
STARLINK-36523          
1 67460U 26008R   26160.39301551  .00026938  00000+0  98336-3 0  9990
2 67460  42.9907  47.6321 0003995 264.8406  95.1990 15.27624895 23596
STARLINK-36522          
1 67461U 26008S   26160.37117777  .00024579  00000+0  89896-3 0  9994
2 67461  42.9954  47.4606 0002595 283.1937  76.8625 15.27606027 23599
STARLINK-36504          
1 67462U 26008T   26159.97500087  .00040757  00000+0  14801-2 0  9998
2 67462  43.0060  49.6517 0001845 113.7583 246.3462 15.27632609 23539
STARLINK-36505          
1 67463U 26008U   26159.97115341  .00015774  00000+0  58124-3 0  9992
2 67463  43.0010  49.6125 0002313 280.6204  79.4387 15.27594893 23538
STARLINK-36421          
1 67464U 26008V   26160.41086040  .00008979  00000+0  33518-3 0  9996
2 67464  43.0035  46.8987 0001024 271.7111  88.3623 15.27604558 23607
STARLINK-36437          
1 67465U 26008W   26158.98007600  .00033320  00000+0  12152-2 0  9999
2 67465  43.0007  55.0731 0001299 250.7669 109.3042 15.27570120 23386
STARLINK-36520          
1 67466U 26008X   26160.39687565  .00021946  00000+0  80421-3 0  9998
2 67466  43.0019  47.6563 0001281 270.1450  89.9255 15.27598563 23598
STARLINK-36425          
1 67467U 26008Y   26160.39045730  .00014626  00000+0  53978-3 0  9995
2 67467  43.0044  47.6173 0000679 286.2078  73.8699 15.27591340 23598
STARLINK-36414          
1 67468U 26008Z   26160.41470811  .00014606  00000+0  53867-3 0  9996
2 67468  43.0021  46.9156 0001261 294.8517  65.2204 15.27614692 23603
STARLINK-36441          
1 67469U 26008AA  26160.39431070  .00014921  00000+0  55052-3 0  9996
2 67469  43.0057  47.6284 0000438 295.8402  64.2404 15.27587589 23595
STARLINK-36454          
1 67470U 26008AB  26158.98393296  .00028975  00000+0  10580-2 0  9997
2 67470  43.0011  55.0950 0003377 280.0515  79.9955 15.27585943 23389
STARLINK-36334          
1 67471U 26008AC  26160.40073538  .00015868  00000+0  58451-3 0  9999
2 67471  43.0019  47.6713 0000738 279.9671  80.1097 15.27601461 23598
