OBJECT_NAME,OBJECT_ID,EPOCH,MEAN_MOTION,ECCENTRICITY,INCLINATION,RA_OF_ASC_NODE,ARG_OF_PERICENTER,MEAN_ANOMALY,EPHEMERIS_TYPE,CLASSIFICATION_TYPE,NORAD_CAT_ID,ELEMENT_SET_NO,REV_AT_EPOCH,BSTAR,MEAN_MOTION_DOT,MEAN_MOTION_DDOT
HULIANWANG DIGUI-143,2026-007G,2026-06-09T14:42:30.257280,13.29323179,.00007688,50.0092,112.8228,336.6778,23.4059,0,U,67441,999,1978,.90250574E-4,-.82E-6,0
HULIANWANG DIGUI-144,2026-007H,2026-06-09T14:30:22.394304,13.29327554,.00008888,50.0081,112.7669,342.4812,17.6029,0,U,67442,999,1978,.10124317E-3,-.77E-6,0
HULIANWANG DIGUI-145,2026-007J,2026-06-09T14:18:28.783872,13.29324012,.00008698,50.0085,112.7287,338.8828,21.2008,0,U,67443,999,1978,.98760035E-4,-.78E-6,0
STARLINK-36542,2026-008A,2026-06-09T09:24:06.564096,15.27631669,.00011357,43.0030,47.6280,296.3602,63.7133,0,U,67445,999,2359,.99804698E-3,.27347E-3,0
STARLINK-36539,2026-008B,2026-06-09T09:44:27.562848,15.27593919,.00023571,43.0204,47.7291,268.9030,91.1552,0,U,67446,999,2359,.50652281E-3,.13708E-3,0
STARLINK-36440,2026-008C,2026-06-09T09:49:47.464896,15.27604299,.00022225,43.0054,46.8835,265.2106,94.8492,0,U,67447,999,2360,.59098964E-3,.16048E-3,0
STARLINK-36423,2026-008D,2026-06-08T23:22:10.060320,15.27594679,.00018212,43.0001,49.6473,274.8690,85.1954,0,U,67448,999,2353,.88903721E-3,.24294E-3,0
STARLINK-36519,2026-008E,2026-06-09T09:09:17.534880,15.27597644,.00031133,43.0020,47.5410,262.3545,97.6953,0,U,67449,999,2359,.59012563E-3,.16022E-3,0
STARLINK-36525,2026-008F,2026-06-09T09:03:44.869824,15.27602797,.00014814,43.0027,47.5125,264.7139,95.3544,0,U,67450,999,2359,.53026512E-3,.14368E-3,0
STARLINK-36511,2026-008G,2026-06-09T09:29:39.126336,15.27612574,.00028192,43.0027,47.6593,268.4045,91.6484,0,U,67451,999,2359,.76065749E-3,.2075E-3,0
STARLINK-36524,2026-008H,2026-06-09T09:40:43.916448,15.27600980,.00056344,43.0036,47.7111,269.0847,90.9359,0,U,67452,999,2359,.47463037E-3,.12834E-3,0
STARLINK-36518,2026-008J,2026-06-09T09:11:09.008160,15.27606483,.00013201,43.0044,47.5361,278.7148,81.3555,0,U,67453,999,2359,.95284568E-3,.26072E-3,0
STARLINK-36517,2026-008K,2026-06-09T09:20:24.186912,15.27591662,.00024317,42.9930,47.6120,270.4135,89.6438,0,U,67454,999,2359,.80726583E-3,.22027E-3,0
STARLINK-36516,2026-008L,2026-06-07T23:35:00.793248,15.27601321,.00008132,43.0018,55.1038,212.6811,147.3991,0,U,67455,999,2338,.59107679E-3,.16049E-3,0
STARLINK-36493,2026-008M,2026-06-07T23:40:34.096800,15.27582636,.0002893,43.0008,55.1323,277.3240,82.7283,0,U,67456,999,2338,.94156654E-3,.25742E-3,0
STARLINK-36529,2026-008N,2026-06-09T09:14:50.929152,15.27612010,.00003035,43.0031,47.5728,226.6649,133.4178,0,U,67457,999,2359,.64123436E-3,.17442E-3,0
STARLINK-36528,2026-008P,2026-06-09T09:46:04.629792,15.27616628,.00054949,43.0171,46.8587,267.4092,92.6131,0,U,67458,999,2360,.8057044E-3,.22007E-3,0
STARLINK-36546,2026-008Q,2026-06-09T09:35:10.923936,15.27598002,.00056816,43.0234,47.6741,263.2828,96.7377,0,U,67459,999,2359,.58727684E-3,.15947E-3,0
STARLINK-36523,2026-008R,2026-06-09T09:25:56.540064,15.27624895,.00039955,42.9907,47.6321,264.8406,95.1990,0,U,67460,999,2359,.98336475E-3,.26938E-3,0
STARLINK-36522,2026-008S,2026-06-09T08:54:29.759328,15.27606027,.00025952,42.9954,47.4606,283.1937,76.8625,0,U,67461,999,2359,.89896084E-3,.24579E-3,0
STARLINK-36504,2026-008T,2026-06-08T23:24:00.075168,15.27632609,.00018455,43.0060,49.6517,113.7583,246.3462,0,U,67462,999,2353,.14800524E-2,.40757E-3,0
STARLINK-36505,2026-008U,2026-06-08T23:18:27.654624,15.27594893,.00023134,43.0010,49.6125,280.6204,79.4387,0,U,67463,999,2353,.58124168E-3,.15774E-3,0
STARLINK-36421,2026-008V,2026-06-09T09:51:38.338560,15.27604558,.00010247,43.0035,46.8987,271.7111,88.3623,0,U,67464,999,2360,.33518237E-3,.8979E-4,0
STARLINK-36437,2026-008W,2026-06-07T23:31:18.566400,15.27570120,.00012992,43.0007,55.0731,250.7669,109.3042,0,U,67465,999,2338,.12152465E-2,.3332E-3,0
STARLINK-36520,2026-008X,2026-06-09T09:31:30.056160,15.27598563,.00012819,43.0019,47.6563,270.1450,89.9255,0,U,67466,999,2359,.80420748E-3,.21946E-3,0
STARLINK-36425,2026-008Y,2026-06-09T09:22:15.510720,15.27591340,.00006793,43.0044,47.6173,286.2078,73.8699,0,U,67467,999,2359,.53977612E-3,.14626E-3,0
STARLINK-36414,2026-008Z,2026-06-09T09:57:10.780704,15.27614692,.0001261,43.0021,46.9156,294.8517,65.2204,0,U,67468,999,2360,.53866889E-3,.14606E-3,0
STARLINK-36441,2026-008AA,2026-06-09T09:27:48.444480,15.27587589,.00004381,43.0057,47.6284,295.8402,64.2404,0,U,67469,999,2359,.55051717E-3,.14921E-3,0
STARLINK-36454,2026-008AB,2026-06-07T23:36:51.807744,15.27585943,.00033779,43.0011,55.0950,280.0515,79.9955,0,U,67470,999,2338,.10580065E-2,.28975E-3,0
STARLINK-36334,2026-008AC,2026-06-09T09:37:03.536832,15.27601461,.00007381,43.0019,47.6713,279.9671,80.1097,0,U,67471,999,2359,.58451458E-3,.15868E-3,0
